start=new Date('2022-01-15T00:00:00.000Z').valueOf();
sats=[{"ELEMENT_SET_NO":"999","ECCENTRICITY":"0.00019390","REV_AT_EPOCH":"3865","FILE":"3272874","MEAN_ANOMALY":"293.8978","RA_OF_ASC_NODE":"323.3929","NORAD_CAT_ID":"48361","EPHEMERIS_TYPE":"0","OBJECT_NAME":"STARLINK-2591","OBJECT_TYPE":"PAYLOAD","APOAPSIS":"548.568","TIME_SYSTEM":"UTC","GP_ID":"193846853","TLE_LINE1":"1 48361U 21038J   22014.54108484  .00000501  00000-0  52518-4 0  9990","PERIOD":"95.592","MEAN_MOTION":"15.06396145","REF_FRAME":"TEME","COUNTRY_CODE":"US","BSTAR":"0.00005251800000","TLE_LINE2":"2 48361  53.0502 323.3929 0001939  66.2214 293.8978 15.06396145 38651","PERIAPSIS":"545.883","SITE":"AFETR","INCLINATION":"53.0502","RCS_SIZE":"LARGE","OBJECT_ID":"2021-038J","CENTER_NAME":"EARTH","ARG_OF_PERICENTER":"66.2214","MEAN_MOTION_DOT":"0.00000501","DECAY_DATE":null,"MEAN_ELEMENT_THEORY":"SGP4","LAUNCH_DATE":"2021-05-04","CLASSIFICATION_TYPE":"U","EPOCH":"2022-01-14T12:59:09.730176","MEAN_MOTION_DDOT":"0.0000000000000","SEMIMAJOR_AXIS":"6925.360"},{"ECCENTRICITY":"0.00018300","ELEMENT_SET_NO":"999","EPHEMERIS_TYPE":"0","FILE":"3272874","REV_AT_EPOCH":"3866","MEAN_ANOMALY":"297.9738","NORAD_CAT_ID":"48362","RA_OF_ASC_NODE":"323.2630","OBJECT_TYPE":"PAYLOAD","APOAPSIS":"548.482","OBJECT_NAME":"STARLINK-2578","PERIOD":"95.592","TIME_SYSTEM":"UTC","TLE_LINE1":"1 48362U 21038K   22014.56594461  .00001242  00000-0  10224-3 0  9997","GP_ID":"193847099","BSTAR":"0.00010224000000","COUNTRY_CODE":"US","MEAN_MOTION":"15.06399780","REF_FRAME":"TEME","SITE":"AFETR","RCS_SIZE":"LARGE","INCLINATION":"53.0594","TLE_LINE2":"2 48362  53.0594 323.2630 0001830  62.1436 297.9738 15.06399780 38660","PERIAPSIS":"545.947","MEAN_ELEMENT_THEORY":"SGP4","DECAY_DATE":null,"LAUNCH_DATE":"2021-05-04","OBJECT_ID":"2021-038K","ARG_OF_PERICENTER":"62.1436","MEAN_MOTION_DOT":"0.00001242","CENTER_NAME":"EARTH","EPOCH":"2022-01-14T13:34:57.614304","CLASSIFICATION_TYPE":"U","SEMIMAJOR_AXIS":"6925.349","MEAN_MOTION_DDOT":"0.0000000000000"},{"OBJECT_NAME":"STARLINK-2626","OBJECT_TYPE":"PAYLOAD","APOAPSIS":"548.533","TIME_SYSTEM":"UTC","GP_ID":"193847853","TLE_LINE1":"1 48363U 21038L   22014.05315869  .00000188  00000-0  31537-4 0  9994","PERIOD":"95.592","ELEMENT_SET_NO":"999","ECCENTRICITY":"0.00018890","MEAN_ANOMALY":"288.7736","FILE":"3272874","REV_AT_EPOCH":"3865","NORAD_CAT_ID":"48363","RA_OF_ASC_NODE":"320.5680","EPHEMERIS_TYPE":"0","OBJECT_ID":"2021-038L","CENTER_NAME":"EARTH","ARG_OF_PERICENTER":"71.3458","MEAN_MOTION_DOT":"0.00000188","DECAY_DATE":null,"MEAN_ELEMENT_THEORY":"SGP4","LAUNCH_DATE":"2021-05-04","CLASSIFICATION_TYPE":"U","EPOCH":"2022-01-14T01:16:32.910816","SEMIMAJOR_AXIS":"6925.360","MEAN_MOTION_DDOT":"0.0000000000000","MEAN_MOTION":"15.06396397","REF_FRAME":"TEME","BSTAR":"0.00003153700000","COUNTRY_CODE":"US","TLE_LINE2":"2 48363  53.0565 320.5680 0001889  71.3458 288.7736 15.06396397 38650","PERIAPSIS":"545.916","SITE":"AFETR","RCS_SIZE":"LARGE","INCLINATION":"53.0565"},{"GP_ID":"193848098","TLE_LINE1":"1 48364U 21038M   22014.11486664  .00000445  00000-0  48789-4 0  9997","TIME_SYSTEM":"UTC","PERIOD":"95.592","OBJECT_NAME":"STARLINK-2611","APOAPSIS":"548.427","OBJECT_TYPE":"PAYLOAD","RA_OF_ASC_NODE":"320.2949","NORAD_CAT_ID":"48364","REV_AT_EPOCH":"3866","FILE":"3272874","MEAN_ANOMALY":"292.8221","EPHEMERIS_TYPE":"0","ELEMENT_SET_NO":"999","ECCENTRICITY":"0.00017680","SEMIMAJOR_AXIS":"6925.338","MEAN_MOTION_DDOT":"0.0000000000000","CLASSIFICATION_TYPE":"U","EPOCH":"2022-01-14T02:45:24.477696","CENTER_NAME":"EARTH","MEAN_MOTION_DOT":"0.00000445","ARG_OF_PERICENTER":"67.2954","OBJECT_ID":"2021-038M","LAUNCH_DATE":"2021-05-04","DECAY_DATE":null,"MEAN_ELEMENT_THEORY":"SGP4","PERIAPSIS":"545.978","TLE_LINE2":"2 48364  53.0581 320.2949 0001768  67.2954 292.8221 15.06403478 38660","INCLINATION":"53.0581","RCS_SIZE":"LARGE","SITE":"AFETR","REF_FRAME":"TEME","MEAN_MOTION":"15.06403478","BSTAR":"0.00004878900000","COUNTRY_CODE":"US"},{"RCS_SIZE":"LARGE","INCLINATION":"53.0575","SITE":"AFETR","PERIAPSIS":"546.026","TLE_LINE2":"2 48365  53.0575 318.3159 0001734  64.0407 296.0761 15.06395724 39329","COUNTRY_CODE":"US","BSTAR":"0.00010545000000","REF_FRAME":"TEME","MEAN_MOTION":"15.06395724","MEAN_MOTION_DDOT":"0.0000000000000","SEMIMAJOR_AXIS":"6925.362","CLASSIFICATION_TYPE":"U","EPOCH":"2022-01-14T13:23:43.094688","LAUNCH_DATE":"2021-05-04","DECAY_DATE":null,"MEAN_ELEMENT_THEORY":"SGP4","CENTER_NAME":"EARTH","MEAN_MOTION_DOT":"0.00001289","ARG_OF_PERICENTER":"64.0407","OBJECT_ID":"2021-038N","EPHEMERIS_TYPE":"0","NORAD_CAT_ID":"48365","RA_OF_ASC_NODE":"318.3159","FILE":"3273028","REV_AT_EPOCH":"3932","MEAN_ANOMALY":"296.0761","ECCENTRICITY":"0.00017340","ELEMENT_SET_NO":"999","PERIOD":"95.592","TLE_LINE1":"1 48365U 21038N   22014.55813767  .00001289  00000-0  10545-3 0  9999","GP_ID":"193852746","TIME_SYSTEM":"UTC","APOAPSIS":"548.428","OBJECT_TYPE":"PAYLOAD","OBJECT_NAME":"STARLINK-2608"},{"ARG_OF_PERICENTER":"65.7972","MEAN_MOTION_DOT":"0.00000927","CENTER_NAME":"EARTH","OBJECT_ID":"2021-038P","LAUNCH_DATE":"2021-05-04","MEAN_ELEMENT_THEORY":"SGP4","DECAY_DATE":null,"MEAN_MOTION_DDOT":"0.0000000000000","SEMIMAJOR_AXIS":"6925.342","EPOCH":"2022-01-14T13:05:47.471712","CLASSIFICATION_TYPE":"U","REF_FRAME":"TEME","MEAN_MOTION":"15.06402165","COUNTRY_CODE":"US","BSTAR":"0.00008115700000","PERIAPSIS":"545.942","TLE_LINE2":"2 48366  53.0562 313.3573 0001827  65.7972 294.3208 15.06402165 38794","RCS_SIZE":"LARGE","INCLINATION":"53.0562","SITE":"AFETR","OBJECT_NAME":"STARLINK-2631","APOAPSIS":"548.472","OBJECT_TYPE":"PAYLOAD","GP_ID":"193846599","TLE_LINE1":"1 48366U 21038P   22014.54568833  .00000927  00000-0  81157-4 0  9996","TIME_SYSTEM":"UTC","PERIOD":"95.592","ELEMENT_SET_NO":"999","ECCENTRICITY":"0.00018270","NORAD_CAT_ID":"48366","RA_OF_ASC_NODE":"313.3573","MEAN_ANOMALY":"294.3208","FILE":"3272874","REV_AT_EPOCH":"3879","EPHEMERIS_TYPE":"0"},{"SEMIMAJOR_AXIS":"6925.335","MEAN_MOTION_DDOT":"0.0000000000000","EPOCH":"2022-01-14T13:00:29.078208","CLASSIFICATION_TYPE":"U","ARG_OF_PERICENTER":"65.9094","MEAN_MOTION_DOT":"0.00002677","CENTER_NAME":"EARTH","OBJECT_ID":"2021-038Q","LAUNCH_DATE":"2021-05-04","MEAN_ELEMENT_THEORY":"SGP4","DECAY_DATE":null,"PERIAPSIS":"545.931","TLE_LINE2":"2 48367  53.0563 313.3898 0001833  65.9094 294.2086 15.06404278 38790","INCLINATION":"53.0563","RCS_SIZE":"LARGE","SITE":"AFETR","REF_FRAME":"TEME","MEAN_MOTION":"15.06404278","BSTAR":"0.00019852000000","COUNTRY_CODE":"US","GP_ID":"193847353","TLE_LINE1":"1 48367U 21038Q   22014.54200322  .00002677  00000-0  19852-3 0  9999","TIME_SYSTEM":"UTC","PERIOD":"95.592","OBJECT_NAME":"STARLINK-2643","OBJECT_TYPE":"PAYLOAD","APOAPSIS":"548.470","RA_OF_ASC_NODE":"313.3898","NORAD_CAT_ID":"48367","REV_AT_EPOCH":"3879","FILE":"3272874","MEAN_ANOMALY":"294.2086","EPHEMERIS_TYPE":"0","ELEMENT_SET_NO":"999","ECCENTRICITY":"0.00018330"},{"OBJECT_NAME":"STARLINK-2623","APOAPSIS":"548.489","OBJECT_TYPE":"PAYLOAD","GP_ID":"193850872","TLE_LINE1":"1 48368U 21038R   22014.55948923  .00001404  00000-0  11311-3 0  9996","TIME_SYSTEM":"UTC","PERIOD":"95.592","ELEMENT_SET_NO":"999","ECCENTRICITY":"0.00018570","RA_OF_ASC_NODE":"313.2911","NORAD_CAT_ID":"48368","FILE":"3272956","MEAN_ANOMALY":"290.8586","REV_AT_EPOCH":"3939","EPHEMERIS_TYPE":"0","ARG_OF_PERICENTER":"69.2602","MEAN_MOTION_DOT":"0.00001404","CENTER_NAME":"EARTH","OBJECT_ID":"2021-038R","LAUNCH_DATE":"2021-05-04","MEAN_ELEMENT_THEORY":"SGP4","DECAY_DATE":null,"MEAN_MOTION_DDOT":"0.0000000000000","SEMIMAJOR_AXIS":"6925.338","EPOCH":"2022-01-14T13:25:39.869472","CLASSIFICATION_TYPE":"U","REF_FRAME":"TEME","MEAN_MOTION":"15.06403518","BSTAR":"0.00011311000000","COUNTRY_CODE":"US","PERIAPSIS":"545.917","TLE_LINE2":"2 48368  53.0558 313.2911 0001857  69.2602 290.8586 15.06403518 39398","INCLINATION":"53.0558","RCS_SIZE":"LARGE","SITE":"AFETR"},{"ELEMENT_SET_NO":"999","ECCENTRICITY":"0.00018300","RA_OF_ASC_NODE":"313.3866","NORAD_CAT_ID":"48369","FILE":"3272874","REV_AT_EPOCH":"3879","MEAN_ANOMALY":"294.8020","EPHEMERIS_TYPE":"0","OBJECT_NAME":"STARLINK-2641","APOAPSIS":"548.476","OBJECT_TYPE":"PAYLOAD","TLE_LINE1":"1 48369U 21038S   22014.53831730  .00003097  00000-0  22674-3 0  9996","GP_ID":"193846854","TIME_SYSTEM":"UTC","PERIOD":"95.592","REF_FRAME":"TEME","MEAN_MOTION":"15.06401671","BSTAR":"0.00022674000000","COUNTRY_CODE":"US","PERIAPSIS":"545.941","TLE_LINE2":"2 48369  53.0553 313.3866 0001830  65.3159 294.8020 15.06401671 38797","RCS_SIZE":"LARGE","INCLINATION":"53.0553","SITE":"AFETR","MEAN_MOTION_DOT":"0.00003097","ARG_OF_PERICENTER":"65.3159","CENTER_NAME":"EARTH","OBJECT_ID":"2021-038S","LAUNCH_DATE":"2021-05-04","MEAN_ELEMENT_THEORY":"SGP4","DECAY_DATE":null,"MEAN_MOTION_DDOT":"0.0000000000000","SEMIMAJOR_AXIS":"6925.343","EPOCH":"2022-01-14T12:55:10.614720","CLASSIFICATION_TYPE":"U"},{"ELEMENT_SET_NO":"999","ECCENTRICITY":"0.00019340","RA_OF_ASC_NODE":"313.4083","NORAD_CAT_ID":"48370","FILE":"3272874","REV_AT_EPOCH":"3879","MEAN_ANOMALY":"293.9405","EPHEMERIS_TYPE":"0","OBJECT_NAME":"STARLINK-2621","APOAPSIS":"548.583","OBJECT_TYPE":"PAYLOAD","GP_ID":"193847100","TLE_LINE1":"1 48370U 21038T   22014.53464274  .00000192  00000-0  31829-4 0  9999","TIME_SYSTEM":"UTC","PERIOD":"95.593","REF_FRAME":"TEME","MEAN_MOTION":"15.06390306","BSTAR":"0.00003182900000","COUNTRY_CODE":"US","PERIAPSIS":"545.904","TLE_LINE2":"2 48370  53.0561 313.4083 0001934  66.1787 293.9405 15.06390306 38790","RCS_SIZE":"LARGE","INCLINATION":"53.0561","SITE":"AFETR","CENTER_NAME":"EARTH","MEAN_MOTION_DOT":"0.00000192","ARG_OF_PERICENTER":"66.1787","OBJECT_ID":"2021-038T","LAUNCH_DATE":"2021-05-04","DECAY_DATE":null,"MEAN_ELEMENT_THEORY":"SGP4","MEAN_MOTION_DDOT":"0.0000000000000","SEMIMAJOR_AXIS":"6925.378","CLASSIFICATION_TYPE":"U","EPOCH":"2022-01-14T12:49:53.132736"}];
